H1 CPF 01  gfz 2022 01 21 01  5211 terrasarx 
H2 0702601  6201 31698    2022 01 21 00 59 42 2022 01 26 00 00 42   120 1 1  0 0 0
H9
10 0 59602  46062.000000  0    1336945.632   2424034.413   6297719.256
10 0 59602  46182.000000  0    1214480.361   1559256.821   6588617.143
10 0 59602  46302.000000  0    1055476.778    669737.196   6763748.008
10 0 59602  46422.000000  0     862420.290   -228385.836   6820054.006
10 0 59602  46542.000000  0     638671.100  -1118878.219   6756551.621
10 0 59602  46662.000000  0     388405.561  -1985704.084   6574348.674
10 0 59602  46782.000000  0     116538.275  -2813314.363   6276626.417
10 0 59602  46902.000000  0    -171373.377  -3586927.451   5868586.445
10 0 59602  47022.000000  0    -469239.743  -4292793.810   5357362.786
10 0 59602  47142.000000  0    -770563.256  -4918442.709   4751904.682
10 0 59602  47262.000000  0   -1068575.979  -5452910.892   4062828.549
10 0 59602  47382.000000  0   -1356387.416  -5886945.410   3302235.233
10 0 59602  47502.000000  0   -1627138.185  -6213172.988   2483498.111
10 0 59602  47622.000000  0   -1874156.917  -6426234.546   1621027.368
10 0 59602  47742.000000  0   -2091117.060  -6522880.885    730011.604
10 0 59602  47862.000000  0   -2272187.278  -6502025.517   -173857.229
10 0 59602  47982.000000  0   -2412172.781  -6364754.168  -1074668.814
10 0 59602  48102.000000  0   -2506644.280  -6114290.391  -1956583.216
10 0 59602  48222.000000  0   -2552051.521  -5755918.553  -2804117.252
10 0 59602  48342.000000  0   -2545818.116  -5296865.856  -3602422.610
10 0 59602  48462.000000  0   -2486415.077  -4746146.409  -4337548.611
10 0 59602  48582.000000  0   -2373411.854  -4114373.374  -4996683.765
10 0 59602  48702.000000  0   -2207504.574  -3413545.057  -5568373.049
10 0 59602  48822.000000  0   -1990521.470  -2656809.893  -6042708.753
10 0 59602  48942.000000  0   -1725404.933  -1858214.607  -6411492.437
10 0 59602  49062.000000  0   -1416170.650  -1032441.178  -6668365.004
10 0 59602  49182.000000  0   -1067846.403   -194538.458  -6808904.957
10 0 59602  49302.000000  0    -686391.086    640347.311  -6830695.617
10 0 59602  49422.000000  0    -278593.971   1457239.292  -6733361.980
10 0 59602  49542.000000  0     148042.659   2241591.611  -6518576.143
10 0 59602  49662.000000  0     585436.983   2979542.478  -6190033.567
10 0 59602  49782.000000  0    1025077.583   3658156.841  -5753397.033
10 0 59602  49902.000000  0    1458184.689   4265652.286  -5216207.639
10 0 59602  50022.000000  0    1875881.587   4791606.322  -4587766.577
10 0 59602  50142.000000  0    2269373.790   5227142.330  -3878985.047
10 0 59602  50262.000000  0    2630131.572   5565087.852  -3102203.476
10 0 59602  50382.000000  0    2950072.750   5800103.085  -2270983.798
10 0 59602  50502.000000  0    3221741.984   5928775.785  -1399875.723
10 0 59602  50622.000000  0    3438481.206   5949679.173   -504160.806
10 0 59602  50742.000000  0    3594586.252   5863390.153    400420.586
10 0 59602  50862.000000  0    3685445.825   5672466.954   1297952.814
10 0 59602  50982.000000  0    3707660.116   5381386.883   2172632.534
10 0 59602  51102.000000  0    3659134.944   4996446.927   3009055.329
10 0 59602  51222.000000  0    3539148.706   4525626.431   3792496.215
10 0 59602  51342.000000  0    3348391.494   3978416.444   4509172.798
10 0 59602  51462.000000  0    3088974.704   3365623.913   5146492.635
10 0 59602  51582.000000  0    2764407.816   2699150.005   5693274.137
10 0 59602  51702.000000  0    2379550.709   1991752.801   6139937.474
10 0 59602  51822.000000  0    1940539.481   1256798.705   6478668.002
10 0 59602  51942.000000  0    1454685.300    508006.113   6703546.678
10 0 59602  52062.000000  0     930350.181   -240810.640   6810646.652
10 0 59602  52182.000000  0     376802.386   -975995.060   6798098.860
10 0 59602  52302.000000  0    -195947.718  -1684297.964   6666122.948
10 0 59602  52422.000000  0    -777328.769  -2353116.013   6417023.161
10 0 59602  52542.000000  0   -1356402.862  -2970716.178   6055149.245
10 0 59602  52662.000000  0   -1922068.501  -3526441.896   5586824.525
10 0 59602  52782.000000  0   -2463272.560  -4010899.944   5020243.380
10 0 59602  52902.000000  0   -2969228.803  -4416125.082   4365335.401
10 0 59602  53022.000000  0   -3429636.606  -4735717.376   3633595.611
10 0 59602  53142.000000  0   -3834893.348  -4964948.998   2837884.282
10 0 59602  53262.000000  0   -4176296.136  -5100838.709   1992200.950
10 0 59602  53382.000000  0   -4446230.206  -5142192.225   1111435.263
10 0 59602  53502.000000  0   -4638338.044  -5089605.951    211098.948
10 0 59602  53622.000000  0   -4747664.869  -4945434.484   -692954.940
10 0 59602  53742.000000  0   -4770776.719  -4713722.453  -1584820.529
10 0 59602  53862.000000  0   -4705846.882  -4400101.423  -2448828.565
10 0 59602  53982.000000  0   -4552708.821  -4011654.838  -3269828.669
10 0 59602  54102.000000  0   -4312875.299  -3556756.345  -4033458.149
10 0 59602  54222.000000  0   -3989524.170  -3044886.181  -4726393.004
10 0 59602  54342.000000  0   -3587451.555  -2486429.580  -5336576.769
10 0 59602  54462.000000  0   -3112993.923  -1892462.752  -5853422.842
10 0 59602  54582.000000  0   -2573922.215  -1274531.475  -6267988.522
10 0 59602  54702.000000  0   -1979309.482   -644426.384  -6573119.103
10 0 59602  54822.000000  0   -1339374.697    -13959.874  -6763559.391
10 0 59602  54942.000000  0    -665307.967    605250.613  -6836033.091
10 0 59602  55062.000000  0      30921.373   1201991.025  -6789293.312
10 0 59602  55182.000000  0     736771.655   1765648.282  -6624141.406
10 0 59602  55302.000000  0    1439349.072   2286394.626  -6343417.210
10 0 59602  55422.000000  0    2125638.835   2755356.892  -5951955.352
10 0 59602  55542.000000  0    2782742.329   3164767.568  -5456510.435
10 0 59602  55662.000000  0    3398116.652   3508094.198  -4865650.571
10 0 59602  55782.000000  0    3959814.173   3780147.714  -4189621.555
10 0 59602  55902.000000  0    4456717.871   3977165.848  -3440179.548
10 0 59602  56022.000000  0    4878766.933   4096869.232  -2630394.067
10 0 59602  56142.000000  0    5217165.860   4138488.403  -1774424.203
10 0 59602  56262.000000  0    5464573.683   4102761.223   -887271.896
10 0 59602  56382.000000  0    5615267.105   3991899.490     15483.997
10 0 59602  56502.000000  0    5665273.769   3809526.036    917966.438
10 0 59602  56622.000000  0    5612472.230   3560582.300   1804287.489
10 0 59602  56742.000000  0    5456654.098   3251208.369   2658836.914
10 0 59602  56862.000000  0    5199547.130   2888600.113   3466565.895
10 0 59602  56982.000000  0    4844798.629   2480845.612   4213259.525
10 0 59602  57102.000000  0    4397918.900   2036744.852   4885790.091
10 0 59602  57222.000000  0    3866191.291   1565620.565   5472348.194
10 0 59602  57342.000000  0    3258544.845   1077121.809   5962650.533
10 0 59602  57462.000000  0    2585395.417    581024.548   6348114.178
10 0 59602  57582.000000  0    1858461.774     87036.702   6621998.999
10 0 59602  57702.000000  0    1090559.070   -395390.282   6779520.640
10 0 59602  57822.000000  0     295370.298   -857241.907   6817930.413
10 0 59602  57942.000000  0    -512798.591  -1290108.498   6736559.202
10 0 59602  58062.000000  0   -1319275.625  -1686338.059   6536827.748
10 0 59602  58182.000000  0   -2109287.841  -2039171.440   6222221.903
10 0 59602  58302.000000  0   -2868229.420  -2342856.962   5798236.121
10 0 59602  58422.000000  0   -3581933.223  -2592746.092   5272286.430
10 0 59602  58542.000000  0   -4236940.709  -2785367.110   4653586.173
10 0 59602  58662.000000  0   -4820760.867  -2918473.878   3952988.637
10 0 59602  58782.000000  0   -5322114.602  -2991068.727   3182799.933
10 0 59602  58902.000000  0   -5731159.943  -3003399.900   2356565.151
10 0 59602  59022.000000  0   -6039693.750  -2956933.971   1488829.137
10 0 59602  59142.000000  0   -6241322.939  -2854302.585    594874.696
10 0 59602  59262.000000  0   -6331599.922  -2699223.241   -309553.863
10 0 59602  59382.000000  0   -6308120.746  -2496398.341  -1208536.693
10 0 59602  59502.000000  0   -6170580.600  -2251393.299  -2086268.866
10 0 59602  59622.000000  0   -5920785.669  -1970498.135  -2927345.615
10 0 59602  59742.000000  0   -5562623.810  -1660576.307  -3717037.331
10 0 59602  59862.000000  0   -5101994.133  -1328904.680  -4441549.121
10 0 59602  59982.000000  0   -4546698.666   -983008.734  -5088259.705
10 0 59602  60102.000000  0   -3906298.477   -630496.571  -5645936.092
10 0 59602  60222.000000  0   -3191938.349   -278896.094  -6104919.470
10 0 59602  60342.000000  0   -2416145.492     64501.193  -6457280.962
10 0 59602  60462.000000  0   -1592606.254    392786.285  -6696946.954
10 0 59602  60582.000000  0    -735924.502    699566.104  -6819792.855
10 0 59602  60702.000000  0     138633.118    979084.112  -6823705.759
10 0 59602  60822.000000  0    1015401.867   1226324.697  -6708616.396
10 0 59602  60942.000000  0    1878592.831   1437100.647  -6476503.025
10 0 59602  61062.000000  0    2712571.972   1608123.722  -6131361.211
10 0 59602  61182.000000  0    3502139.154   1737055.542  -5679141.585
10 0 59602  61302.000000  0    4232801.949   1822538.366  -5127656.683
10 0 59602  61422.000000  0    4891043.066   1864206.330  -4486458.289
10 0 59602  61542.000000  0    5464575.971   1862676.086  -3766682.373
10 0 59602  61662.000000  0    5942581.668   1819516.263  -2980864.531
10 0 59602  61782.000000  0    6315923.275   1737196.619  -2142728.938
10 0 59602  61902.000000  0    6577333.054   1619018.036  -1266950.979
10 0 59602  62022.000000  0    6721564.801   1469023.601   -368898.614
10 0 59602  62142.000000  0    6745507.946   1291892.742    535642.843
10 0 59602  62262.000000  0    6648258.014   1092822.078   1430754.784
10 0 59602  62382.000000  0    6431146.337    877395.253   2300673.483
10 0 59602  62502.000000  0    6097722.329    651444.041   3130077.776
99
